[{"OBJECT_NAME":"TOMORROW-R2","OBJECT_ID":"2023-084AG","EPOCH":"2026-03-09T21:19:23.098656","MEAN_MOTION":15.71879583,"ECCENTRICITY":0.00051142,"INCLINATION":97.5895,"RA_OF_ASC_NODE":222.1734,"ARG_OF_PERICENTER":248.1295,"MEAN_ANOMALY":111.9424,"EPHEMERIS_TYPE":0,"CLASSIFICATION_TYPE":"U","NORAD_CAT_ID":56962,"ELEMENT_SET_NO":999,"REV_AT_EPOCH":15332,"BSTAR":0.00081619373,"MEAN_MOTION_DOT":0.00107013,"MEAN_MOTION_DDOT":0},{"OBJECT_NAME":"STARLINK-11308 [DTC]","OBJECT_ID":"2024-175D","EPOCH":"2026-03-09T05:14:15.021024","MEAN_MOTION":15.69705818,"ECCENTRICITY":0.00012101,"INCLINATION":53.1588,"RA_OF_ASC_NODE":58.5027,"ARG_OF_PERICENTER":96.8002,"MEAN_ANOMALY":263.3154,"EPHEMERIS_TYPE":0,"CLASSIFICATION_TYPE":"U","NORAD_CAT_ID":61246,"ELEMENT_SET_NO":999,"REV_AT_EPOCH":8329,"BSTAR":-9.844118e-6,"MEAN_MOTION_DOT":-1.781e-5,"MEAN_MOTION_DDOT":0}]
